GLOBALSTAR M040 [-]     
1 25622U 99004B   23302.61521400 -.00000100  00000+0  19219-4 0  9995
2 25622  51.9918  73.1938 0001236 132.0682 241.8830 12.61958045139939
GLOBALSTAR M036 [-]     
1 25623U 99004C   23302.45473285  .00000019  00000+0  14856-2 0  9993
2 25623  51.9998  13.1090 0010595 353.2542  19.7224 11.86555748108148
GLOBALSTAR M038 [-]     
1 25624U 99004D   23302.56398394 -.00000049  00000+0  37886-3 0  9996
2 25624  51.9995 349.7144 0001513 242.4262 264.9237 12.32486738128809
GLOBALSTAR M022 [-]     
1 25649U 99012A   23302.40345959 -.00000093  00000+0 -73783-4 0  9991
2 25649  52.0016 113.1895 0003586  76.8759 287.9001 12.02471808104582
GLOBALSTAR M041 [-]     
1 25650U 99012B   23302.49417493 -.00000050  00000+0  45835-3 0  9993
2 25650  52.0038 336.2064 0001932 215.1985 144.8724 11.96645082106849
GLOBALSTAR M046 [-]     
1 25651U 99012C   23302.63099181  .00000001  00000+0  98536-3 0  9991
2 25651  52.0048  84.4765 0002995 130.3618 313.1870 12.09378074111480
GLOBALSTAR M037 [+]     
1 25652U 99012D   23302.46186104 -.00000069  00000+0  19406-3 0  9999
2 25652  51.9996 201.2281 0001590 333.6707 197.8803 12.62386859135905
